      2.10          N: GNSS NAV DATA                        RINEX VERSION / TYPE
fic2rin                                 05/24/2018 00:07:58 PGM / RUN BY / DATE
                                                            END OF HEADER
32 18  5 23 22  0  0.0-5.053253844380e-04 5.456968210638e-12 0.000000000000e+00
    9.400000000000e+01 4.184375000000e+01 4.359110145863e-09-1.735986031472e+00
    2.188608050346e-06 2.120085642673e-03 1.051649451256e-05 5.153668310165e+03
    3.384000000000e+05-5.401670932770e-08-5.421709078002e-01-1.415610313416e-07
    9.572682659285e-01 1.785000000000e+02-2.562183553755e+00-7.851398470833e-09
    1.010756387775e-10 1.000000000000e+00 2.002000000000e+03 0.000000000000e+00
    3.400000000000e+00 0.000000000000e+00 4.656612873077e-10 9.400000000000e+01
    3.312060000000e+05 4.000000000000e+00
26 18  5 23 22  0  0.0-1.393831335008e-04 1.261923898710e-11 0.000000000000e+00
    8.100000000000e+01-2.871875000000e+01 4.687338103589e-09-6.322337550508e-01
   -1.475214958191e-06 2.787248347886e-03 7.227063179016e-06 5.153661338806e+03
    3.384000000000e+05 3.911554813385e-08 1.541285007656e+00 7.450580596924e-09
    9.555922431097e-01 2.339687500000e+02 1.302467579631e-01-8.245700609385e-09
   -2.135803250493e-10 1.000000000000e+00 2.002000000000e+03 0.000000000000e+00
    2.400000000000e+00 0.000000000000e+00 7.450580596924e-09 8.100000000000e+01
    3.312060000000e+05 4.000000000000e+00
31 18  5 23 22  0  0.0 1.195888034999e-04-2.614797267597e-12 0.000000000000e+00
    7.600000000000e+01 3.546875000000e+01 4.624478342371e-09 7.861752537778e-01
    1.953914761543e-06 8.750183973461e-03 4.751607775688e-06 5.153660488129e+03
    3.384000000000e+05 1.788139343262e-07 5.426759948963e-01 8.381903171539e-08
    9.635214375754e-01 2.874687500000e+02-1.299152417084e-01-8.299274269514e-09
    8.321775206769e-11 1.000000000000e+00 2.002000000000e+03 0.000000000000e+00
    2.400000000000e+00 0.000000000000e+00-1.350417733192e-08 7.600000000000e+01
    3.312060000000e+05 4.000000000000e+00
30 18  5 23 22  0  0.0 7.079681381583e-05-4.320099833421e-12 0.000000000000e+00
    8.900000000000e+01 4.118750000000e+01 5.121999066106e-09 1.070661398625e+00
    2.181157469749e-06 3.408126300201e-03 4.431232810020e-06 5.153731916428e+03
    3.384000000000e+05-3.166496753693e-08 5.638238318572e-01 1.229345798492e-07
    9.444613353942e-01 2.850625000000e+02-3.084076999409e+00-8.500354073867e-09
    8.178912113090e-11 1.000000000000e+00 2.002000000000e+03 0.000000000000e+00
    2.400000000000e+00 0.000000000000e+00 3.725290298462e-09 8.900000000000e+01
    3.312060000000e+05 4.000000000000e+00
29 18  5 23 22  0  0.0 4.449300467968e-04-6.480149750132e-12 0.000000000000e+00
    4.700000000000e+01 2.221875000000e+01 4.030525030403e-09-1.441730412899e+00
    1.287087798119e-06 7.658166578040e-04 8.935108780861e-06 5.153696557999e+03
    3.384000000000e+05-3.911554813385e-08 2.667824636736e+00-1.303851604462e-08
    9.841716746549e-01 2.221562500000e+02 1.131693400235e+00-7.798896283906e-09
    2.953694461802e-10 1.000000000000e+00 2.002000000000e+03 0.000000000000e+00
    2.400000000000e+00 0.000000000000e+00-1.024454832077e-08 4.700000000000e+01
    3.312060000000e+05 4.000000000000e+00
27 18  5 23 22  0  0.0 3.683399409056e-04-1.023181539495e-12 0.000000000000e+00
    7.500000000000e+01 2.775000000000e+01 4.120528779420e-09-2.439829371955e+00
    1.240521669388e-06 5.949215847068e-03 9.644776582718e-06 5.153687614441e+03
    3.384000000000e+05 1.862645149231e-08 2.603208393667e+00-1.024454832077e-07
    9.775889894882e-01 2.038750000000e+02 4.199452170211e-01-7.828540375844e-09
    2.950122884460e-10 1.000000000000e+00 2.002000000000e+03 0.000000000000e+00
    2.400000000000e+00 0.000000000000e+00 1.396983861923e-09 7.500000000000e+01
    3.312060000000e+05 4.000000000000e+00
20 18  5 23 22  0  0.0 5.088658072054e-04 9.094947017729e-13 0.000000000000e+00
    8.600000000000e+01-6.731250000000e+01 5.360937590283e-09 1.868972930087e+00
   -3.613531589508e-06 4.249308840372e-03 6.919726729393e-06 5.154844932556e+03
    3.384000000000e+05 4.842877388000e-08-1.690531667258e+00-3.352761268616e-08
    9.279839799719e-01 2.247187500000e+02 1.947961351426e+00-8.477138821144e-09
   -3.857303529318e-10 1.000000000000e+00 2.002000000000e+03 0.000000000000e+00
    2.400000000000e+00 0.000000000000e+00-8.381903171539e-09 8.600000000000e+01
    3.312060000000e+05 4.000000000000e+00
28 18  5 23 22  0  0.0 7.177265360951e-04 3.183231456205e-12 0.000000000000e+00
    1.040000000000e+02-3.315625000000e+01 3.998737992059e-09-1.561984698681e+00
   -1.266598701477e-06 1.947324257344e-02 8.942559361458e-06 5.153680761337e+03
    3.384000000000e+05-1.490116119385e-08 1.646095242406e+00 4.824250936508e-07
    9.857009477724e-01 2.194375000000e+02-1.520800285128e+00-7.836755003730e-09
   -2.864405028253e-10 1.000000000000e+00 2.002000000000e+03 0.000000000000e+00
    2.400000000000e+00 0.000000000000e+00-1.117587089539e-08 1.040000000000e+02
    3.312060000000e+05 4.000000000000e+00
32 18  5 23 21 59 44.0-5.053267814219e-04 5.456968210638e-12 0.000000000000e+00
    8.000000000000e+00 4.184375000000e+01 4.359467303597e-09-1.738320749248e+00
    2.188608050346e-06 2.120080636814e-03 1.051649451256e-05 5.153668310165e+03
    3.383840000000e+05-5.401670932770e-08-5.421707790635e-01-1.415610313416e-07
    9.572682688544e-01 1.785000000000e+02-2.562182566285e+00-7.851755628567e-09
    1.010756387775e-10 1.000000000000e+00 2.002000000000e+03 0.000000000000e+00
    2.400000000000e+00 0.000000000000e+00 4.656612873077e-10 8.000000000000e+00
    3.325560000000e+05 4.000000000000e+00
 2 18  5 23 21 59 44.0 1.067603006959e-04-1.114131009672e-11 0.000000000000e+00
    2.000000000000e+00 3.218750000000e+00 5.044138680051e-09 1.991926336299e+00
   -2.942979335785e-07 1.787818444427e-02 4.466623067856e-06 5.153737936020e+03
    3.383840000000e+05 3.911554813385e-08-2.685087304138e+00-3.557652235031e-07
    9.504416698934e-01 2.856875000000e+02-1.856350221901e+00-8.283916486944e-09
    1.253623647028e-10 1.000000000000e+00 2.002000000000e+03 0.000000000000e+00
    2.400000000000e+00 0.000000000000e+00-2.048909664154e-08 2.000000000000e+00
    3.364560000000e+05 4.000000000000e+00
11 18  5 23 21 59 44.0-7.356782443821e-04 7.958078640513e-13 0.000000000000e+00
    4.000000000000e+00 2.762500000000e+01 6.249546032963e-09 9.644954411179e-01
    1.184642314911e-06 1.682048395742e-02 5.729496479034e-06 5.153631273270e+03
    3.383840000000e+05-2.048909664154e-07-3.050602010527e+00-3.427267074585e-07
    9.055814435249e-01 2.431875000000e+02 1.762045236988e+00-9.204311967967e-09
    3.375140588153e-10 1.000000000000e+00 2.002000000000e+03 0.000000000000e+00
    2.400000000000e+00 0.000000000000e+00-1.210719347000e-08 4.000000000000e+00
    3.364560000000e+05 4.000000000000e+00
 7 18  5 23 21 59 44.0 1.870212145150e-04-6.139089236967e-12 0.000000000000e+00
    8.000000000000e+00 4.459375000000e+01 4.833058459141e-09 9.702111995679e-01
    2.389773726463e-06 1.161240856163e-02 4.988163709641e-06 5.153659717560e+03
    3.383840000000e+05-1.806765794754e-07 5.301956739894e-01 1.192092895508e-07
    9.588755988918e-01 2.831875000000e+02-2.530981396826e+00-8.437137154914e-09
   -2.642967233051e-11 1.000000000000e+00 2.002000000000e+03 0.000000000000e+00
    2.400000000000e+00 0.000000000000e+00-1.117587089539e-08 8.000000000000e+00
    3.372360000000e+05 4.000000000000e+00
 2 18  5 23 23 59 44.0 1.066806726158e-04-1.114131009672e-11 0.000000000000e+00
    3.000000000000e+00 6.593750000000e+00 5.147357265234e-09 3.042048455792e+00
    3.892928361893e-07 1.787779107690e-02 4.172325134277e-06 5.153738992691e+03
    3.455840000000e+05 2.235174179077e-07-2.685146790776e+00-2.644956111908e-07
    9.504426924731e-01 2.883125000000e+02-1.856327017094e+00-8.262129865158e-09
    1.710785546799e-10 1.000000000000e+00 2.002000000000e+03 0.000000000000e+00
    2.400000000000e+00 0.000000000000e+00-2.048909664154e-08 3.000000000000e+00
    3.384060000000e+05 4.000000000000e+00
11 18  5 23 23 59 44.0-7.356721907854e-04 7.958078640513e-13 0.000000000000e+00
    5.000000000000e+00 2.875000000000e+01 5.959891110530e-09 2.014661875325e+00
    1.307576894760e-06 1.682060095482e-02 5.036592483521e-06 5.153632930756e+03
    3.455840000000e+05 3.203749656677e-07-3.050665605039e+00-1.061707735062e-07
    9.055862082491e-01 2.490937500000e+02 1.762096133371e+00-8.619644757088e-09
    2.782258749387e-10 1.000000000000e+00 2.002000000000e+03 0.000000000000e+00
    2.400000000000e+00 0.000000000000e+00-1.210719347000e-08 5.000000000000e+00
    3.384060000000e+05 4.000000000000e+00
 7 18  5 23 23 59 44.0 1.869765110314e-04-6.139089236967e-12 0.000000000000e+00
    9.000000000000e+00 4.087500000000e+01 4.791985319709e-09 2.020348755772e+00
    2.067536115646e-06 1.161248655990e-02 5.155801773071e-06 5.153660902023e+03
    3.455840000000e+05-2.756714820862e-07 5.301346483617e-01-5.401670932770e-08
    9.588757422578e-01 2.806562500000e+02-2.530927456110e+00-8.339633093479e-09
    3.107272287506e-11 1.000000000000e+00 2.002000000000e+03 0.000000000000e+00
    2.400000000000e+00 0.000000000000e+00-1.117587089539e-08 9.000000000000e+00
    3.384060000000e+05 4.000000000000e+00
32 18  5 23 23 59 44.0-5.052872002125e-04 5.456968210638e-12 0.000000000000e+00
    6.700000000000e+01 3.225000000000e+01 4.441613582462e-09-6.875318843598e-01
    1.549720764160e-06 2.120463643223e-03 1.038797199726e-05 5.153670833588e+03
    3.455840000000e+05 6.146728992462e-08-5.422271891846e-01 1.676380634308e-08
    9.572680435650e-01 1.800625000000e+02-2.562789342280e+00-7.994975879979e-09
   -1.428630936784e-12 1.000000000000e+00 2.002000000000e+03 0.000000000000e+00
    2.400000000000e+00 0.000000000000e+00 4.656612873077e-10 6.700000000000e+01
    3.384060000000e+05 4.000000000000e+00
